NORAD_CAT_ID,OBJECT_NAME,OBJECT_TYPE,EPOCH,MEAN_MOTION,ECCENTRICITY,INCLINATION,RA_OF_ASC_NODE,ARG_OF_PERICENTER,MEAN_ANOMALY,BSTAR,MEAN_MOTION_DOT,MEAN_MOTION_DDOT,TLE_LINE0,TLE_LINE1,TLE_LINE2,SEMIMAJOR_AXIS,PERIOD,APOGEE,PERIGEE,DECAYED
53886.0,STARLINK-5028,PAYLOAD,2023-10-06 20:53:03,15.08838687,0.0001609,53.2181,336.464,97.617,262.5005,9.5011e-05,1.224e-05,0.0,0 STARLINK-5028,1 53886U 22119A   23279.87017775  .00001224  00000-0  95011-4 0  9999,2 53886  53.2181 336.4640 0001609  97.6170 262.5005 15.08838687 58102,6917.884,95.438,540.862,538.636,0.0
53886.0,STARLINK-5028,PAYLOAD,2023-10-07 11:11:31,15.08845813,0.0001605,53.2186,333.7864,94.1294,265.9881,0.00025415,3.76e-05,0.0,0 STARLINK-5028,1 53886U 22119A   23280.46633667  .00003760  00000-0  25415-3 0  9997,2 53886  53.2186 333.7864 0001605  94.1294 265.9881 15.08845813 58197,6917.863,95.437,540.838,538.617,0.0
53886.0,STARLINK-5028,PAYLOAD,2023-10-07 20:43:50,15.08846461,0.0001508,53.2173,332.0003,74.2404,285.8754,0.00024357,3.591e-05,0.0,0 STARLINK-5028,1 53886U 22119A   23280.86377581  .00003591  00000-0  24357-3 0  9997,2 53886  53.2173 332.0003 0001508  74.2404 285.8754 15.08846461 58251,6917.861,95.437,540.769,538.682,0.0
53886.0,STARLINK-5028,PAYLOAD,2023-10-08 03:05:22,15.08845333,0.000167,53.2184,330.8095,79.7371,280.3809,0.00027436,4.082e-05,0.0,0 STARLINK-5028,1 53886U 22119A   23281.12873669  .00004082  00000-0  27436-3 0  9992,2 53886  53.2184 330.8095 0001670  79.7371 280.3809 15.08845333 57878,6917.864,95.437,540.884,538.574,0.0
53886.0,STARLINK-5028,PAYLOAD,2023-10-08 09:26:55,15.08835688,0.000181,53.2185,329.6239,82.7229,277.3969,2.0254e-05,3.4e-07,0.0,0 STARLINK-5028,1 53886U 22119A   23281.39370337  .00000034  00000-0  20254-4 0  9990,2 53886  53.2185 329.6239 0001810  82.7229 277.3969 15.08835688 57917,6917.894,95.438,541.011,538.506,0.0
53886.0,STARLINK-5028,PAYLOAD,2023-10-08 11:02:18,15.08838899,0.0001736,53.2182,329.326,83.6151,276.5039,6.2401e-05,7.05e-06,0.0,0 STARLINK-5028,1 53886U 22119A   23281.45994140  .00000705  00000-0  62401-4 0  9996,2 53886  53.2182 329.3260 0001736  83.6151 276.5039 15.08838899 58340,6917.884,95.438,540.95,538.548,0.0
53886.0,STARLINK-5028,PAYLOAD,2023-10-08 20:34:37,15.08841895,0.0001768,53.2187,327.5423,83.6979,276.4214,0.00012076,1.634e-05,0.0,0 STARLINK-5028,1 53886U 22119A   23281.85738057  .00001634  00000-0  12076-3 0  9997,2 53886  53.2187 327.5423 0001768  83.6979 276.4214 15.08841895 58400,6917.875,95.437,540.963,538.517,0.0
53886.0,STARLINK-5028,PAYLOAD,2023-10-09 09:17:42,15.08847336,0.0001569,53.2171,325.161,93.324,266.7931,0.00011614,1.561e-05,0.0,0 STARLINK-5028,1 53886U 22119A   23282.38729719  .00001561  00000-0  11614-3 0  9997,2 53886  53.2171 325.1610 0001569  93.3240 266.7931 15.08847336 58069,6917.858,95.437,540.808,538.638,0.0
53886.0,STARLINK-5028,PAYLOAD,2023-10-10 02:46:57,15.08842088,0.0001658,53.2163,321.8907,87.1184,272.9998,0.00018065,2.588e-05,0.0,0 STARLINK-5028,1 53886U 22119A   23283.11594018  .00002588  00000-0  18065-3 0  9998,2 53886  53.2163 321.8907 0001658  87.1184 272.9998 15.08842088 58172,6917.874,95.437,540.886,538.592,0.0
53886.0,STARLINK-5028,PAYLOAD,2023-10-10 12:19:15,15.08852079,0.0001747,53.2177,320.1056,102.9138,257.2049,0.0001913,2.759e-05,0.0,0 STARLINK-5028,1 53886U 22119A   23283.51337349  .00002759  00000-0  19130-3 0  9998,2 53886  53.2177 320.1056 0001747 102.9138 257.2049 15.08852079 58655,6917.843,95.437,540.917,538.5,0.0
53886.0,STARLINK-5028,PAYLOAD,2023-10-11 02:37:44,15.08833131,0.0001975,53.2164,317.4304,91.0224,269.0994,-3.0998e-05,-7.81e-06,0.0,0 STARLINK-5028,1 53886U 22119A   23284.10954591 -.00000781  00000-0 -30998-4 0  9999,2 53886  53.2164 317.4304 0001975  91.0224 269.0994 15.08833131 58325,6917.901,95.438,541.133,538.4,0.0
53886.0,STARLINK-5028,PAYLOAD,2023-10-11 12:10:03,15.0883589,0.0001788,53.2176,315.6458,90.8012,269.3185,1.6491e-05,-2.6e-07,0.0,0 STARLINK-5028,1 53886U 22119A   23284.50698632 -.00000026  00000-0  16491-4 0  9997,2 53886  53.2176 315.6458 0001788  90.8012 269.3185 15.08835890 58804,6917.893,95.438,540.995,538.521,0.0
53886.0,STARLINK-5028,PAYLOAD,2023-10-12 08:50:04,15.08849436,0.0001687,53.2171,311.7795,88.4511,271.6674,0.00023301,3.423e-05,0.0,0 STARLINK-5028,1 53886U 22119A   23285.36810235  .00003423  00000-0  23301-3 0  9997,2 53886  53.2171 311.7795 0001687  88.4511 271.6674 15.08849436 58513,6917.852,95.437,540.884,538.55,0.0
53886.0,STARLINK-5028,PAYLOAD,2023-10-12 18:22:23,15.08843044,0.0001666,53.2168,309.9966,88.3783,271.74,8.2452e-05,1.025e-05,0.0,0 STARLINK-5028,1 53886U 22119A   23285.76554405  .00001025  00000-0  82452-4 0  9994,2 53886  53.2168 309.9966 0001666  88.3783 271.7400 15.08843044 58578,6917.871,95.437,540.889,538.584,0.0
53886.0,STARLINK-5028,PAYLOAD,2023-10-13 00:43:56,15.08833743,0.0001744,53.2173,308.8087,88.4114,271.7078,0.00014488,2.018e-05,0.0,0 STARLINK-5028,1 53886U 22119A   23286.03051107  .00002018  00000-0  14488-3 0  9992,2 53886  53.2173 308.8087 0001744  88.4114 271.7078 15.08833743 58613,6917.9,95.438,540.971,538.558,0.0
53886.0,STARLINK-5028,PAYLOAD,2023-10-13 08:40:51,15.08836903,0.0001685,53.2183,307.3224,86.7092,273.4093,0.00020856,3.032e-05,0.0,0 STARLINK-5028,1 53886U 22119A   23286.36170914  .00003032  00000-0  20856-3 0  9999,2 53886  53.2183 307.3224 0001685  86.7092 273.4093 15.08836903 59080,6917.89,95.438,540.921,538.589,0.0
53886.0,STARLINK-5028,PAYLOAD,2023-10-13 18:13:10,15.08844704,0.0001724,53.218,305.5371,92.685,267.434,0.00014838,2.074e-05,0.0,0 STARLINK-5028,1 53886U 22119A   23286.75914482  .00002074  00000-0  14838-3 0  9996,2 53886  53.2180 305.5371 0001724  92.6850 267.4340 15.08844704 58728,6917.866,95.437,540.924,538.538,0.0
53886.0,STARLINK-5028,PAYLOAD,2023-10-14 11:42:24,15.08851387,0.0001848,53.2186,302.2658,92.5142,267.6062,0.00012553,1.711e-05,0.0,0 STARLINK-5028,1 53886U 22119A   23287.48778065  .00001711  00000-0  12553-3 0  9991,2 53886  53.2186 302.2658 0001848  92.5142 267.6062 15.08851387 59253,6917.846,95.437,540.989,538.432,0.0
53886.0,STARLINK-5028,PAYLOAD,2023-10-14 18:03:57,15.08828771,0.0002136,53.2177,301.0759,87.8329,272.2907,-0.00014574,-2.606e-05,0.0,0 STARLINK-5028,1 53886U 22119A   23287.75275300 -.00002606  00000-0 -14574-3 0  9996,2 53886  53.2177 301.0759 0002136  87.8329 272.2907 15.08828771 58875,6917.915,95.438,541.257,538.302,0.0
53886.0,STARLINK-5028,PAYLOAD,2023-10-15 08:22:26,15.0882838,0.000174,53.2167,298.3996,92.2526,267.8665,-8.2106e-05,-1.594e-05,0.0,0 STARLINK-5028,1 53886U 22119A   23288.34891628 -.00001594  00000-0 -82106-4 0  9991,2 53886  53.2167 298.3996 0001740  92.2526 267.8665 15.08828380 59388,6917.916,95.438,540.985,538.577,0.0
53886.0,STARLINK-5028,PAYLOAD,2023-10-15 17:54:45,15.08834225,0.0001752,53.2174,296.6151,89.5046,270.6147,9.8812e-06,-1.31e-06,0.0,0 STARLINK-5028,1 53886U 22119A   23288.74635599 -.00000131  00000-0  98812-5 0  9995,2 53886  53.2174 296.6151 0001752  89.5046 270.6147 15.08834225 59022,6917.898,95.438,540.975,538.551,0.0
53886.0,STARLINK-5028,PAYLOAD,2023-10-16 06:37:49,15.08844398,0.0001646,53.2166,294.2362,87.7561,272.362,0.00022092,3.23e-05,0.0,0 STARLINK-5028,1 53886U 22119A   23289.27627242  .00003230  00000-0  22092-3 0  9997,2 53886  53.2166 294.2362 0001646  87.7561 272.3620 15.08844398 59101,6917.867,95.437,540.871,538.593,0.0
53886.0,STARLINK-5028,PAYLOAD,2023-10-16 08:13:12,15.08850453,0.0001736,53.2169,293.9388,92.973,267.1461,0.00019414,2.804e-05,0.0,0 STARLINK-5028,1 53886U 22119A   23289.34250976  .00002804  00000-0  19414-3 0  9991,2 53886  53.2169 293.9388 0001736  92.9730 267.1461 15.08850453 59535,6917.848,95.437,540.914,538.513,0.0
53886.0,STARLINK-5028,PAYLOAD,2023-10-17 17:36:19,15.08842921,0.0002034,53.2177,287.6917,96.8925,263.2299,0.00016286,2.305e-05,0.0,0 STARLINK-5028,1 53886U 22119A   23290.73355560  .00002305  00000-0  16286-3 0  9991,2 53886  53.2177 287.6917 0002034  96.8925 263.2299 15.08842921 59327,6917.871,95.437,541.144,538.329,0.0
53886.0,STARLINK-5028,PAYLOAD,2023-10-18 03:08:37,15.08842273,0.0001497,53.2176,285.9098,91.9095,268.2069,5.8867e-05,6.49e-06,0.0,0 STARLINK-5028,1 53886U 22119A   23291.13099415  .00000649  00000-0  58867-4 0  9991,2 53886  53.2176 285.9098 0001497  91.9095 268.2069 15.08842273 59806,6917.873,95.437,540.774,538.703,0.0
53886.0,STARLINK-5028,PAYLOAD,2023-10-18 09:30:10,15.0884896,0.0001601,53.2173,284.7174,100.4823,259.635,0.00011063,1.474e-05,0.0,0 STARLINK-5028,1 53886U 22119A   23291.39595091  .00001474  00000-0  11063-3 0  9993,2 53886  53.2173 284.7174 0001601 100.4823 259.6350 15.08848960 59847,6917.853,95.437,540.826,538.61,0.0
53886.0,STARLINK-5028,PAYLOAD,2023-10-19 04:34:47,15.08845313,0.0001678,53.218,281.1485,98.9738,261.1444,0.00016503,2.34e-05,0.0,0 STARLINK-5028,1 53886U 22119A   23292.19083165  .00002340  00000-0  16503-3 0  9993,2 53886  53.2180 281.1485 0001678  98.9738 261.1444 15.08845313 59549,6917.864,95.437,540.89,538.568,0.0
53886.0,STARLINK-5028,PAYLOAD,2023-10-19 06:10:10,15.0885202,0.0001522,53.2172,280.8529,94.5721,265.5445,0.00031645,4.754e-05,0.0,0 STARLINK-5028,1 53886U 22119A   23292.25707011  .00004754  00000-0  31645-3 0  9998,2 53886  53.2172 280.8529 0001522  94.5721 265.5445 15.08852020 59976,6917.844,95.437,540.762,538.656,0.0
53886.0,STARLINK-5028,PAYLOAD,2023-10-19 23:39:25,15.08843365,0.0001571,53.2178,277.5806,90.4114,269.7058,0.00018722,2.693e-05,0.0,0 STARLINK-5028,1 53886U 22119A   23292.98571287  .00002693  00000-0  18722-3 0  9993,2 53886  53.2178 277.5806 0001571  90.4114 269.7058 15.08843365 59662,6917.87,95.437,540.822,538.648,0.0
53886.0,STARLINK-5028,PAYLOAD,2023-10-20 09:11:44,15.08850015,0.0001598,53.2176,275.7962,89.0098,271.1078,0.00026414,3.919e-05,0.0,0 STARLINK-5028,1 53886U 22119A   23293.38314928  .00003919  00000-0  26414-3 0  9994,2 53886  53.2176 275.7962 0001598  89.0098 271.1078 15.08850015 60141,6917.85,95.437,540.82,538.609,0.0
